[{"OBJECT_NAME":"ION SCV-008","OBJECT_ID":"2023-001AU","EPOCH":"2026-03-09T19:46:58.662912","MEAN_MOTION":15.2722664,"ECCENTRICITY":0.00151921,"INCLINATION":97.5676,"RA_OF_ASC_NODE":163.606,"ARG_OF_PERICENTER":8.542,"MEAN_ANOMALY":351.6074,"EPHEMERIS_TYPE":0,"CLASSIFICATION_TYPE":"U","NORAD_CAT_ID":55051,"ELEMENT_SET_NO":999,"REV_AT_EPOCH":17616,"BSTAR":0.00031422806,"MEAN_MOTION_DOT":8.336e-5,"MEAN_MOTION_DDOT":0},{"OBJECT_NAME":"STARLINK-36534","OBJECT_ID":"2026-012D","EPOCH":"2026-03-09T01:28:30.092160","MEAN_MOTION":15.27601101,"ECCENTRICITY":0.00016472,"INCLINATION":43.0005,"RA_OF_ASC_NODE":318.1353,"ARG_OF_PERICENTER":269.2852,"MEAN_ANOMALY":90.7811,"EPHEMERIS_TYPE":0,"CLASSIFICATION_TYPE":"U","NORAD_CAT_ID":67496,"ELEMENT_SET_NO":999,"REV_AT_EPOCH":766,"BSTAR":0.0010242747,"MEAN_MOTION_DOT":0.00028049,"MEAN_MOTION_DDOT":0}]
